<?xml version="1.0" encoding="UTF-8"?>
<ndm xmlns:xsi="http://www.w3.org/2001/XMLSchema-instance" xsi:noNamespaceSchemaLocation="https://sanaregistry.org/r/ndmxml_unqualified/ndmxml-2.0.0-master-2.0.xsd">
<omm id="CCSDS_OMM_VERS" version="2.0">
<header><CREATION_DATE/><ORIGINATOR/></header><body><segment><metadata><OBJECT_NAME>ONEWEB-0597</OBJECT_NAME><OBJECT_ID>2022-166X</OBJECT_ID><CENTER_NAME>EARTH</CENTER_NAME><REF_FRAME>TEME</REF_FRAME><TIME_SYSTEM>UTC</TIME_SYSTEM><MEAN_ELEMENT_THEORY>SGP4</MEAN_ELEMENT_THEORY></metadata><data><meanElements><EPOCH>2025-06-04T11:39:28.819872</EPOCH><MEAN_MOTION>13.21827349</MEAN_MOTION><ECCENTRICITY>.0001656</ECCENTRICITY><INCLINATION>87.9253</INCLINATION><RA_OF_ASC_NODE>319.3183</RA_OF_ASC_NODE><ARG_OF_PERICENTER>90.3028</ARG_OF_PERICENTER><MEAN_ANOMALY>269.8296</MEAN_ANOMALY></meanElements><tleParameters><EPHEMERIS_TYPE>0</EPHEMERIS_TYPE><CLASSIFICATION_TYPE>U</CLASSIFICATION_TYPE><NORAD_CAT_ID>54663</NORAD_CAT_ID><ELEMENT_SET_NO>999</ELEMENT_SET_NO><REV_AT_EPOCH>12164</REV_AT_EPOCH><BSTAR>.27264E-3</BSTAR><MEAN_MOTION_DOT>.126E-5</MEAN_MOTION_DOT><MEAN_MOTION_DDOT>0</MEAN_MOTION_DDOT></tleParameters></data></segment></body></omm>
<omm id="CCSDS_OMM_VERS" version="2.0">
<header><CREATION_DATE/><ORIGINATOR/></header><body><segment><metadata><OBJECT_NAME>ONEWEB-0600</OBJECT_NAME><OBJECT_ID>2022-166Y</OBJECT_ID><CENTER_NAME>EARTH</CENTER_NAME><REF_FRAME>TEME</REF_FRAME><TIME_SYSTEM>UTC</TIME_SYSTEM><MEAN_ELEMENT_THEORY>SGP4</MEAN_ELEMENT_THEORY></metadata><data><meanElements><EPOCH>2025-06-04T11:14:30.622272</EPOCH><MEAN_MOTION>13.21826222</MEAN_MOTION><ECCENTRICITY>.0001674</ECCENTRICITY><INCLINATION>87.9234</INCLINATION><RA_OF_ASC_NODE>319.3273</RA_OF_ASC_NODE><ARG_OF_PERICENTER>94.2051</ARG_OF_PERICENTER><MEAN_ANOMALY>265.9274</MEAN_ANOMALY></meanElements><tleParameters><EPHEMERIS_TYPE>0</EPHEMERIS_TYPE><CLASSIFICATION_TYPE>U</CLASSIFICATION_TYPE><NORAD_CAT_ID>54664</NORAD_CAT_ID><ELEMENT_SET_NO>999</ELEMENT_SET_NO><REV_AT_EPOCH>12161</REV_AT_EPOCH><BSTAR>.24039E-3</BSTAR><MEAN_MOTION_DOT>.112E-5</MEAN_MOTION_DOT><MEAN_MOTION_DDOT>0</MEAN_MOTION_DDOT></tleParameters></data></segment></body></omm>
<omm id="CCSDS_OMM_VERS" version="2.0">
<header><CREATION_DATE/><ORIGINATOR/></header><body><segment><metadata><OBJECT_NAME>ONEWEB-0601</OBJECT_NAME><OBJECT_ID>2022-166Z</OBJECT_ID><CENTER_NAME>EARTH</CENTER_NAME><REF_FRAME>TEME</REF_FRAME><TIME_SYSTEM>UTC</TIME_SYSTEM><MEAN_ELEMENT_THEORY>SGP4</MEAN_ELEMENT_THEORY></metadata><data><meanElements><EPOCH>2025-06-04T11:03:08.568576</EPOCH><MEAN_MOTION>13.21825976</MEAN_MOTION><ECCENTRICITY>.0001656</ECCENTRICITY><INCLINATION>87.9254</INCLINATION><RA_OF_ASC_NODE>319.3341</RA_OF_ASC_NODE><ARG_OF_PERICENTER>82.7991</ARG_OF_PERICENTER><MEAN_ANOMALY>277.3331</MEAN_ANOMALY></meanElements><tleParameters><EPHEMERIS_TYPE>0</EPHEMERIS_TYPE><CLASSIFICATION_TYPE>U</CLASSIFICATION_TYPE><NORAD_CAT_ID>54665</NORAD_CAT_ID><ELEMENT_SET_NO>999</ELEMENT_SET_NO><REV_AT_EPOCH>12180</REV_AT_EPOCH><BSTAR>.17801E-3</BSTAR><MEAN_MOTION_DOT>.87E-6</MEAN_MOTION_DOT><MEAN_MOTION_DDOT>0</MEAN_MOTION_DDOT></tleParameters></data></segment></body></omm>
<omm id="CCSDS_OMM_VERS" version="2.0">
<header><CREATION_DATE/><ORIGINATOR/></header><body><segment><metadata><OBJECT_NAME>ONEWEB-0602</OBJECT_NAME><OBJECT_ID>2022-166AA</OBJECT_ID><CENTER_NAME>EARTH</CENTER_NAME><REF_FRAME>TEME</REF_FRAME><TIME_SYSTEM>UTC</TIME_SYSTEM><MEAN_ELEMENT_THEORY>SGP4</MEAN_ELEMENT_THEORY></metadata><data><meanElements><EPOCH>2025-06-04T10:13:11.910720</EPOCH><MEAN_MOTION>13.21825564</MEAN_MOTION><ECCENTRICITY>.0001592</ECCENTRICITY><INCLINATION>87.9253</INCLINATION><RA_OF_ASC_NODE>319.3415</RA_OF_ASC_NODE><ARG_OF_PERICENTER>92.7395</ARG_OF_PERICENTER><MEAN_ANOMALY>267.3921</MEAN_ANOMALY></meanElements><tleParameters><EPHEMERIS_TYPE>0</EPHEMERIS_TYPE><CLASSIFICATION_TYPE>U</CLASSIFICATION_TYPE><NORAD_CAT_ID>54666</NORAD_CAT_ID><ELEMENT_SET_NO>999</ELEMENT_SET_NO><REV_AT_EPOCH>12164</REV_AT_EPOCH><BSTAR>-.12014E-4</BSTAR><MEAN_MOTION_DOT>.8E-7</MEAN_MOTION_DOT><MEAN_MOTION_DDOT>0</MEAN_MOTION_DDOT></tleParameters></data></segment></body></omm>
<omm id="CCSDS_OMM_VERS" version="2.0">
<header><CREATION_DATE/><ORIGINATOR/></header><body><segment><metadata><OBJECT_NAME>ONEWEB-0603</OBJECT_NAME><OBJECT_ID>2022-166AB</OBJECT_ID><CENTER_NAME>EARTH</CENTER_NAME><REF_FRAME>TEME</REF_FRAME><TIME_SYSTEM>UTC</TIME_SYSTEM><MEAN_ELEMENT_THEORY>SGP4</MEAN_ELEMENT_THEORY></metadata><data><meanElements><EPOCH>2025-06-04T10:20:00.097152</EPOCH><MEAN_MOTION>13.21825196</MEAN_MOTION><ECCENTRICITY>.0001619</ECCENTRICITY><INCLINATION>87.9227</INCLINATION><RA_OF_ASC_NODE>319.2892</RA_OF_ASC_NODE><ARG_OF_PERICENTER>86.8653</ARG_OF_PERICENTER><MEAN_ANOMALY>273.2666</MEAN_ANOMALY></meanElements><tleParameters><EPHEMERIS_TYPE>0</EPHEMERIS_TYPE><CLASSIFICATION_TYPE>U</CLASSIFICATION_TYPE><NORAD_CAT_ID>54667</NORAD_CAT_ID><ELEMENT_SET_NO>999</ELEMENT_SET_NO><REV_AT_EPOCH>12157</REV_AT_EPOCH><BSTAR>.523E-4</BSTAR><MEAN_MOTION_DOT>.35E-6</MEAN_MOTION_DOT><MEAN_MOTION_DDOT>0</MEAN_MOTION_DDOT></tleParameters></data></segment></body></omm>
<omm id="CCSDS_OMM_VERS" version="2.0">
<header><CREATION_DATE/><ORIGINATOR/></header><body><segment><metadata><OBJECT_NAME>ONEWEB-0604</OBJECT_NAME><OBJECT_ID>2022-166AC</OBJECT_ID><CENTER_NAME>EARTH</CENTER_NAME><REF_FRAME>TEME</REF_FRAME><TIME_SYSTEM>UTC</TIME_SYSTEM><MEAN_ELEMENT_THEORY>SGP4</MEAN_ELEMENT_THEORY></metadata><data><meanElements><EPOCH>2025-06-04T10:01:49.596960</EPOCH><MEAN_MOTION>13.21825846</MEAN_MOTION><ECCENTRICITY>.0001604</ECCENTRICITY><INCLINATION>87.9248</INCLINATION><RA_OF_ASC_NODE>319.3048</RA_OF_ASC_NODE><ARG_OF_PERICENTER>92.6443</ARG_OF_PERICENTER><MEAN_ANOMALY>267.4875</MEAN_ANOMALY></meanElements><tleParameters><EPHEMERIS_TYPE>0</EPHEMERIS_TYPE><CLASSIFICATION_TYPE>U</CLASSIFICATION_TYPE><NORAD_CAT_ID>54668</NORAD_CAT_ID><ELEMENT_SET_NO>999</ELEMENT_SET_NO><REV_AT_EPOCH>12153</REV_AT_EPOCH><BSTAR>.20082E-3</BSTAR><MEAN_MOTION_DOT>.96E-6</MEAN_MOTION_DOT><MEAN_MOTION_DDOT>0</MEAN_MOTION_DDOT></tleParameters></data></segment></body></omm>
<omm id="CCSDS_OMM_VERS" version="2.0">
<header><CREATION_DATE/><ORIGINATOR/></header><body><segment><metadata><OBJECT_NAME>ONEWEB-0605</OBJECT_NAME><OBJECT_ID>2022-166AD</OBJECT_ID><CENTER_NAME>EARTH</CENTER_NAME><REF_FRAME>TEME</REF_FRAME><TIME_SYSTEM>UTC</TIME_SYSTEM><MEAN_ELEMENT_THEORY>SGP4</MEAN_ELEMENT_THEORY></metadata><data><meanElements><EPOCH>2025-06-04T11:41:45.245472</EPOCH><MEAN_MOTION>13.21825216</MEAN_MOTION><ECCENTRICITY>.0001867</ECCENTRICITY><INCLINATION>87.9247</INCLINATION><RA_OF_ASC_NODE>319.3220</RA_OF_ASC_NODE><ARG_OF_PERICENTER>71.9846</ARG_OF_PERICENTER><MEAN_ANOMALY>288.1491</MEAN_ANOMALY></meanElements><tleParameters><EPHEMERIS_TYPE>0</EPHEMERIS_TYPE><CLASSIFICATION_TYPE>U</CLASSIFICATION_TYPE><NORAD_CAT_ID>54669</NORAD_CAT_ID><ELEMENT_SET_NO>999</ELEMENT_SET_NO><REV_AT_EPOCH>12161</REV_AT_EPOCH><BSTAR>.34204E-3</BSTAR><MEAN_MOTION_DOT>.154E-5</MEAN_MOTION_DOT><MEAN_MOTION_DDOT>0</MEAN_MOTION_DDOT></tleParameters></data></segment></body></omm>
<omm id="CCSDS_OMM_VERS" version="2.0">
<header><CREATION_DATE/><ORIGINATOR/></header><body><segment><metadata><OBJECT_NAME>ONEWEB-0606</OBJECT_NAME><OBJECT_ID>2022-166AE</OBJECT_ID><CENTER_NAME>EARTH</CENTER_NAME><REF_FRAME>TEME</REF_FRAME><TIME_SYSTEM>UTC</TIME_SYSTEM><MEAN_ELEMENT_THEORY>SGP4</MEAN_ELEMENT_THEORY></metadata><data><meanElements><EPOCH>2025-06-04T10:24:32.351328</EPOCH><MEAN_MOTION>13.21825296</MEAN_MOTION><ECCENTRICITY>.0001995</ECCENTRICITY><INCLINATION>87.9254</INCLINATION><RA_OF_ASC_NODE>319.3424</RA_OF_ASC_NODE><ARG_OF_PERICENTER>97.5193</ARG_OF_PERICENTER><MEAN_ANOMALY>262.6168</MEAN_ANOMALY></meanElements><tleParameters><EPHEMERIS_TYPE>0</EPHEMERIS_TYPE><CLASSIFICATION_TYPE>U</CLASSIFICATION_TYPE><NORAD_CAT_ID>54670</NORAD_CAT_ID><ELEMENT_SET_NO>999</ELEMENT_SET_NO><REV_AT_EPOCH>12166</REV_AT_EPOCH><BSTAR>-.12649E-3</BSTAR><MEAN_MOTION_DOT>-.39E-6</MEAN_MOTION_DOT><MEAN_MOTION_DDOT>0</MEAN_MOTION_DDOT></tleParameters></data></segment></body></omm>

</ndm>
