ONEWEB-0597             
1 54663U 22166X   25155.48575023  .00000126  00000+0  27264-3 0  9995
2 54663  87.9253 319.3183 0001656  90.3028 269.8296 13.21827349121644
ONEWEB-0600             
1 54664U 22166Y   25155.46840998  .00000112  00000+0  24039-3 0  9992
2 54664  87.9234 319.3273 0001674  94.2051 265.9274 13.21826222121612
ONEWEB-0601             
1 54665U 22166Z   25155.46051584  .00000087  00000+0  17801-3 0  9998
2 54665  87.9254 319.3341 0001656  82.7991 277.3331 13.21825976121803
ONEWEB-0602             
1 54666U 22166AA  25155.42583230  .00000008  00000+0 -12014-4 0  9999
2 54666  87.9253 319.3415 0001592  92.7395 267.3921 13.21825564121642
ONEWEB-0603             
1 54667U 22166AB  25155.43055668  .00000035  00000+0  52300-4 0  9991
2 54667  87.9227 319.2892 0001619  86.8653 273.2666 13.21825196121578
ONEWEB-0604             
1 54668U 22166AC  25155.41793515  .00000096  00000+0  20082-3 0  9998
2 54668  87.9248 319.3048 0001604  92.6443 267.4875 13.21825846121537
ONEWEB-0605             
1 54669U 22166AD  25155.48732923  .00000154  00000+0  34204-3 0  9998
2 54669  87.9247 319.3220 0001867  71.9846 288.1491 13.21825216121611
ONEWEB-0606             
1 54670U 22166AE  25155.43370777 -.00000039  00000+0 -12649-3 0  9993
2 54670  87.9254 319.3424 0001995  97.5193 262.6168 13.21825296121669
